NORAD_CAT_ID,OBJECT_NAME,OBJECT_TYPE,EPOCH,MEAN_MOTION,ECCENTRICITY,INCLINATION,RA_OF_ASC_NODE,ARG_OF_PERICENTER,MEAN_ANOMALY,BSTAR,MEAN_MOTION_DOT,MEAN_MOTION_DDOT,TLE_LINE0,TLE_LINE1,TLE_LINE2,SEMIMAJOR_AXIS,PERIOD,APOGEE,PERIGEE,DECAYED
55396.0,STARLINK-5283,PAYLOAD,2023-06-05 13:34:48,15.69915699,0.0003247,69.9975,98.5811,264.1348,95.9478,6.0495e-06,5.14e-06,0.0,0 STARLINK-5283,1 55396U 23014F   23156.56584161  .00000514  00000-0  60495-5 0  9990,2 55396  69.9975  98.5811 0003247 264.1348  95.9478 15.69915699 20746,6737.275,91.725,361.328,356.953,0.0
55396.0,STARLINK-5283,PAYLOAD,2023-06-06 00:17:04,15.69919134,0.0003251,69.9982,97.3273,260.3305,99.7524,9.1088e-06,8.82e-06,0.0,0 STARLINK-5283,1 55396U 23014F   23157.01185658  .00000882  00000-0  91088-5 0  9999,2 55396  69.9982  97.3273 0003251 260.3305  99.7524 15.69919134 19873,6737.265,91.724,361.321,356.94,0.0
55396.0,STARLINK-5283,PAYLOAD,2023-06-06 07:55:49,15.69925826,0.0003032,69.9986,96.433,259.5298,100.5556,9.1257e-06,8.85e-06,0.0,0 STARLINK-5283,1 55396U 23014F   23157.33043704  .00000885  00000-0  91257-5 0  9990,2 55396  69.9986  96.4330 0003032 259.5298 100.5556 15.69925826 20861,6737.246,91.724,361.154,357.068,0.0
55396.0,STARLINK-5283,PAYLOAD,2023-06-06 23:13:21,15.69925283,0.0003267,69.9984,94.6407,262.8995,97.183,-2.8519e-06,-5.56e-06,0.0,0 STARLINK-5283,1 55396U 23014F   23157.96760719 -.00000556  00000-0 -28519-5 0  9999,2 55396  69.9984  94.6407 0003267 262.8995  97.1830 15.69925283 20969,6737.248,91.724,361.314,356.912,0.0
55396.0,STARLINK-5283,PAYLOAD,2023-06-07 20:37:52,15.69920226,0.0002981,69.9976,92.1307,260.0223,100.0637,2.155e-05,2.379e-05,0.0,0 STARLINK-5283,1 55396U 23014F   23158.85964007  .00002379  00000-0  21550-4 0  9994,2 55396  69.9976  92.1307 0002981 260.0223 100.0637 15.69920226 21106,6737.262,91.724,361.136,357.119,0.0
55396.0,STARLINK-5283,PAYLOAD,2023-06-07 23:41:23,15.69926168,0.0002911,69.9979,91.7724,262.2178,97.8687,1.2531e-05,1.294e-05,0.0,0 STARLINK-5283,1 55396U 23014F   23158.98707183  .00001294  00000-0  12531-4 0  9992,2 55396  69.9979  91.7724 0002911 262.2178  97.8687 15.69926168 20189,6737.245,91.724,361.071,357.149,0.0
55396.0,STARLINK-5283,PAYLOAD,2023-06-08 05:48:23,15.69928247,0.0003009,69.9974,91.0554,260.2736,99.812,8.319e-06,7.88e-06,0.0,0 STARLINK-5283,1 55396U 23014F   23159.24193750  .00000788  00000-0  83190-5 0  9998,2 55396  69.9974  91.0554 0003009 260.2736  99.8120 15.69928247 21168,6737.239,91.724,361.132,357.077,0.0
55396.0,STARLINK-5283,PAYLOAD,2023-06-08 22:37:40,15.69919848,0.0002974,69.9978,89.0846,259.7013,100.3847,5.3487e-06,4.3e-06,0.0,0 STARLINK-5283,1 55396U 23014F   23159.94282754  .00000430  00000-0  53487-5 0  9998,2 55396  69.9978  89.0846 0002974 259.7013 100.3847 15.69919848 20333,6737.263,91.724,361.132,357.125,0.0
55396.0,STARLINK-5283,PAYLOAD,2023-06-09 12:23:26,15.69924484,0.0002912,69.9983,87.4726,267.4652,92.621,6.3497e-06,5.51e-06,0.0,0 STARLINK-5283,1 55396U 23014F   23160.51627574  .00000551  00000-0  63497-5 0  9992,2 55396  69.9983  87.4726 0002912 267.4652  92.6210 15.69924484 21368,6737.25,91.724,361.077,357.153,0.0
55396.0,STARLINK-5283,PAYLOAD,2023-06-10 06:44:28,15.69906186,0.0002935,69.9981,85.3224,264.328,95.7581,3.2419e-05,3.684e-05,0.0,0 STARLINK-5283,1 55396U 23014F   23161.28088307  .00003684  00000-0  32419-4 0  9991,2 55396  69.9981  85.3224 0002935 264.3280  95.7581 15.69906186 20547,6737.302,91.725,361.145,357.19,0.0
55396.0,STARLINK-5283,PAYLOAD,2023-06-10 20:30:14,15.69920301,0.0003181,69.9977,83.7126,266.3738,93.7094,-7.2102e-07,-2.99e-06,0.0,0 STARLINK-5283,1 55396U 23014F   23161.85433098 -.00000299  00000-0 -72102-6 0  9991,2 55396  69.9977  83.7126 0003181 266.3738  93.7094 15.69920301 21575,6737.262,91.724,361.27,356.984,0.0
55396.0,STARLINK-5283,PAYLOAD,2023-06-11 01:05:29,15.6992718,0.0003268,69.9982,83.1768,260.4533,99.6294,1.6829e-06,-1e-07,0.0,0 STARLINK-5283,1 55396U 23014F   23162.04547615 -.00000010  00000-0  16829-5 0  9997,2 55396  69.9982  83.1768 0003268 260.4533  99.6294 15.69927180 20669,6737.242,91.724,361.309,356.906,0.0
55396.0,STARLINK-5283,PAYLOAD,2023-06-11 11:47:44,15.69927073,0.0003122,69.998,81.923,268.065,92.0188,1.1394e-05,1.158e-05,0.0,0 STARLINK-5283,1 55396U 23014F   23162.49149124  .00001158  00000-0  11394-4 0  9993,2 55396  69.9980  81.9230 0003122 268.0650  92.0188 15.69927073 21672,6737.243,91.724,361.211,357.004,0.0
55396.0,STARLINK-5283,PAYLOAD,2023-06-11 22:30:01,15.69920769,0.0003312,69.9985,80.6693,262.3511,97.7309,7.1049e-06,6.42e-06,0.0,0 STARLINK-5283,1 55396U 23014F   23162.93751232  .00000642  00000-0  71049-5 0  9992,2 55396  69.9985  80.6693 0003312 262.3511  97.7309 15.69920769 20806,6737.261,91.724,361.357,356.894,0.0
55396.0,STARLINK-5283,PAYLOAD,2023-06-12 04:37:02,15.69918473,0.000262,69.9975,79.9479,292.3092,67.7826,-6.4148e-07,-2.89e-06,0.0,0 STARLINK-5283,1 55396U 23014F   23163.19238525 -.00000289  00000-0 -64148-6 0  9998,2 55396  69.9975  79.9479 0002620 292.3092  67.7826 15.69918473 20840,6737.267,91.725,360.897,357.367,0.0
55396.0,STARLINK-5283,PAYLOAD,2023-06-13 00:29:48,15.6992013,0.0003755,69.997,77.6212,263.2124,96.8645,4.5908e-07,-1.58e-06,0.0,0 STARLINK-5283,1 55396U 23014F   23164.02069849 -.00000158  00000-0  45908-6 0  9999,2 55396  69.9970  77.6212 0003755 263.2124  96.8645 15.69920130 20977,6737.263,91.724,361.657,356.598,0.0
55396.0,STARLINK-5283,PAYLOAD,2023-06-13 03:33:18,15.69928031,0.0003352,69.9975,77.2634,260.9173,99.1643,9.3752e-06,9.15e-06,0.0,0 STARLINK-5283,1 55396U 23014F   23164.14812607  .00000915  00000-0  93752-5 0  9999,2 55396  69.9975  77.2634 0003352 260.9173  99.1643 15.69928031 20991,6737.24,91.724,361.363,356.847,0.0
55396.0,STARLINK-5283,PAYLOAD,2023-06-14 00:57:49,15.69937367,0.0003199,69.9976,74.7561,256.3127,103.7713,-1.7251e-05,-2.288e-05,0.0,0 STARLINK-5283,1 55396U 23014F   23165.04015878 -.00002288  00000-0 -17251-4 0  9990,2 55396  69.9976  74.7561 0003199 256.3127 103.7713 15.69937367 22073,6737.213,91.723,361.233,356.923,0.0
55396.0,STARLINK-5283,PAYLOAD,2023-06-14 17:47:06,15.69919509,0.0003075,69.9988,72.7861,259.0939,100.9911,9.3388e-07,-1e-06,0.0,0 STARLINK-5283,1 55396U 23014F   23165.74105200 -.00000100  00000-0  93388-6 0  9993,2 55396  69.9988  72.7861 0003075 259.0939 100.9911 15.69919509 21246,6737.264,91.724,361.201,357.058,0.0
55396.0,STARLINK-5283,PAYLOAD,2023-06-15 04:29:22,15.69921197,0.0003183,69.9984,71.5322,265.7564,94.3268,-6.9545e-06,-1.049e-05,0.0,0 STARLINK-5283,1 55396U 23014F   23166.18706919 -.00001049  00000-0 -69545-5 0  9997,2 55396  69.9984  71.5322 0003183 265.7564  94.3268 15.69921197 22258,6737.259,91.724,361.269,356.98,0.0
55396.0,STARLINK-5283,PAYLOAD,2023-06-16 00:22:08,15.69926307,0.0003277,69.9988,69.2036,255.0737,105.0096,5.5448e-06,4.54e-06,0.0,0 STARLINK-5283,1 55396U 23014F   23167.01538127  .00000454  00000-0  55448-5 0  9998,2 55396  69.9988  69.2036 0003277 255.0737 105.0096 15.69926307 21443,6737.245,91.724,361.318,356.902,0.0
55396.0,STARLINK-5283,PAYLOAD,2023-06-16 11:04:23,15.69942368,0.0003433,69.9981,67.9491,259.2051,100.8758,6.1643e-06,5.29e-06,0.0,0 STARLINK-5283,1 55396U 23014F   23167.46138577  .00000529  00000-0  61643-5 0  9999,2 55396  69.9981  67.9491 0003433 259.2051 100.8758 15.69942368 21516,6737.199,91.723,361.377,356.751,0.0
55396.0,STARLINK-5283,PAYLOAD,2023-06-16 17:11:24,15.69933805,0.0003007,69.9984,67.2289,249.7422,110.345,5.135e-06,4.05e-06,0.0,0 STARLINK-5283,1 55396U 23014F   23167.71625954  .00000405  00000-0  51350-5 0  9994,2 55396  69.9984  67.2289 0003007 249.7422 110.3450 15.69933805 22499,6737.223,91.724,361.114,357.062,0.0
55396.0,STARLINK-5283,PAYLOAD,2023-06-16 23:18:26,15.69919318,0.0003067,69.9968,66.5136,250.9665,109.1198,-8.1931e-06,-1.197e-05,0.0,0 STARLINK-5283,1 55396U 23014F   23167.97113727 -.00001197  00000-0 -81931-5 0  9991,2 55396  69.9968  66.5136 0003067 250.9665 109.1198 15.69919318 21591,6737.265,91.724,361.196,357.064,0.0
55396.0,STARLINK-5283,PAYLOAD,2023-06-17 02:21:56,15.69917331,0.0003635,69.9975,66.1575,258.912,101.1667,-1.1084e-05,-1.545e-05,0.0,0 STARLINK-5283,1 55396U 23014F   23168.09857268 -.00001545  00000-0 -11084-4 0  9998,2 55396  69.9975  66.1575 0003635 258.9120 101.1667 15.69917331 22550,6737.271,91.725,361.585,356.687,0.0
55396.0,STARLINK-5283,PAYLOAD,2023-06-17 16:07:43,15.69913575,0.0003212,69.9974,64.5451,252.0198,108.0648,-1.1755e-05,-1.625e-05,0.0,0 STARLINK-5283,1 55396U 23014F   23168.67202992 -.00001625  00000-0 -11755-4 0  9994,2 55396  69.9974  64.5451 0003212 252.0198 108.0648 15.69913575 21702,6737.281,91.725,361.31,356.982,0.0
55396.0,STARLINK-5283,PAYLOAD,2023-06-17 23:46:26,15.69941013,0.000175,69.9982,63.6497,227.9734,132.1313,2.6411e-05,2.966e-05,0.0,0 STARLINK-5283,1 55396U 23014F   23168.99058847  .00002966  00000-0  26411-4 0  9999,2 55396  69.9982  63.6497 0001750 227.9734 132.1313 15.69941013 21753,6737.203,91.723,360.247,357.889,0.0
55396.0,STARLINK-5283,PAYLOAD,2023-06-18 02:49:57,15.69938687,0.0003773,69.9976,63.2927,254.9872,105.0906,2.6452e-05,2.971e-05,0.0,0 STARLINK-5283,1 55396U 23014F   23169.11802193  .00002971  00000-0  26452-4 0  9996,2 55396  69.9976  63.2927 0003773 254.9872 105.0906 15.69938687 21772,6737.209,91.723,361.616,356.532,0.0
55396.0,STARLINK-5283,PAYLOAD,2023-06-18 10:28:44,15.69925152,0.0003238,69.998,62.3947,259.7153,100.3678,-7.119e-06,-1.069e-05,0.0,0 STARLINK-5283,1 55396U 23014F   23169.43662151 -.00001069  00000-0 -71190-5 0  9998,2 55396  69.9980  62.3947 0003238 259.7153 100.3678 15.69925152 22767,6737.248,91.724,361.295,356.932,0.0
55396.0,STARLINK-5283,PAYLOAD,2023-06-19 01:46:14,15.69927012,0.0003246,69.9983,60.6046,258.3752,101.7079,2.3075e-05,2.563e-05,0.0,0 STARLINK-5283,1 55396U 23014F   23170.07378104  .00002563  00000-0  23075-4 0  9998,2 55396  69.9983  60.6046 0003246 258.3752 101.7079 15.69927012 22868,6737.243,91.724,361.295,356.921,0.0
